CZ-6A DEB               
1 54329U 22151BY  22330.50942972  .00002300  00000+0  52044-3 0  9994
2 54329  98.7359 335.7954 0169551 177.9245 182.2688 14.48731112  1529
CZ-6A DEB               
1 54330U 22151BZ  22330.61226352  .00001460  00000+0  72709-3 0  9991
2 54330  98.8027 335.5072 0063049 118.7593 241.9934 14.17487377  1509
CZ-6A DEB               
1 54331U 22151CA  22330.72721402  .00000545  00000+0  42630-3 0  9993
2 54331  98.7984 335.0147 0126746  48.2317 312.9594 13.92433090  1498
CZ-6A DEB               
1 54332U 22151CB  22330.47971758  .00001159  00000+0  59721-3 0  9998
2 54332  98.8006 335.3438 0043299 111.6271 248.9524 14.16624848  1497
CZ-6A DEB               
1 54333U 22151CC  22330.73407026  .00004008  00000+0  11476-2 0  9990
2 54333  98.7069 335.6626 0138546 254.5417 104.0433 14.40126088  1577
CZ-6A DEB               
1 54334U 22151CD  22330.73993075  .00004096  00000+0  11912-2 0  9997
2 54334  98.7084 335.6624 0136329 255.2192 103.3856 14.39546399  1578
CZ-6A DEB               
1 54335U 22151CE  22330.76864567  .00000408  00000+0  25655-3 0  9997
2 54335  98.7961 335.4294 0051632  63.9643 296.6830 14.09110744  1545
CZ-6A DEB               
1 54336U 22151CF  22330.72944920  .00000575  00000+0  37008-3 0  9996
2 54336  98.8078 335.3810 0061789  51.1198 309.5460 14.06018021  1542
CZ-6A DEB               
1 54337U 22151CG  22330.78472475  .00000223  00000+0  15578-3 0  9992
2 54337  98.8211 335.5401 0052424  42.0233 318.4939 14.07550656  1552
CZ-6A DEB               
1 54338U 22151CH  22330.55158490  .00000676  00000+0  40780-3 0  9991
2 54338  98.8307 335.4105 0043486  43.5503 316.9087 14.09511373  1522
CZ-6A DEB               
1 54339U 22151CJ  22330.83527589  .00000134  00000+0  10055-3 0  9993
2 54339  98.8076 335.5652 0044389  50.0110 310.4944 14.09528422  1562
CZ-6A DEB               
1 54340U 22151CK  22330.62757294  .00002405  00000+0  53476-3 0  9997
2 54340  98.7106 335.8286 0155951 226.4716 132.3434 14.50751602  1550
CZ-6A DEB               
1 54341U 22151CL  22330.46791151  .00000783  00000+0  39982-3 0  9993
2 54341  98.8055 335.3846 0051526 119.8923 240.7385 14.17793623  1494
CZ-6A DEB               
1 54342U 22151CM  22330.56872341  .00000086  00000+0  74908-4 0  9990
2 54342  98.7995 335.2223 0053419  52.9059 307.6976 14.07818566  1497
CZ-6A DEB               
1 54343U 22151CN  22330.76287312  .00000038  00000+0  45921-4 0  9991
2 54343  98.8139 335.5299 0043132  47.2204 313.2581 14.09664265  1521
CZ-6A DEB               
1 54344U 22151CP  22330.72284224  .00000154  00000+0  11680-3 0  9990
2 54344  98.8224 335.4650 0057630  47.7279 312.8755 14.06653902  1512
CZ-6A DEB               
1 54345U 22151CQ  22330.71817197  .00002783  00000+0  12648-2 0  9995
2 54345  98.7051 335.1795 0078400 294.4883  64.8133 14.20966084  1537
CZ-6A DEB               
1 54346U 22151CR  22330.72444246  .00003639  00000+0  85627-3 0  9997
2 54346  98.6507 335.5403 0154260 237.8364 120.7786 14.47983525  1564
CZ-6A DEB               
1 54347U 22151CS  22329.95401559  .00000324  00000+0  14238-3 0  9999
2 54347  98.7131 334.6068 0107136 281.9768  76.9419 14.27140834  1431
CZ-6A DEB               
1 54348U 22151CT  22330.75728081  .00000635  00000+0  24395-3 0  9992
2 54348  98.6945 335.3966 0107369 268.9254  89.9626 14.30885031  1558
CZ-6A DEB               
1 54349U 22151CU  22330.74571569  .00000449  00000+0  19723-3 0  9991
2 54349  98.7109 335.3364 0112636 285.9475  72.9317 14.25129229  1543
CZ-6A DEB               
1 54350U 22151CV  22330.80679903  .00000236  00000+0  10055-3 0  9994
2 54350  98.8161 336.1395 0069260 197.2388 162.6442 14.32874348  1564
CZ-6A DEB               
1 54351U 22151CW  22330.70829360  .00008208  00000+0  52228-2 0  9992
2 54351  99.0212 336.2952 0202799 337.9434  21.3092 13.94356928  1496
CZ-6A DEB               
1 54352U 22151CX  22330.72471206  .00004478  00000+0  11054-2 0  9994
2 54352  99.1013 337.7981 0202148 269.9693  87.8331 14.41053573  1568
CZ-6A DEB               
1 54353U 22151CY  22330.65772932  .00003557  00000+0  10850-2 0  9997
2 54353  99.1402 337.7537 0178694 278.4617  79.6348 14.33854661  1540
CZ-6A DEB               
1 54354U 22151CZ  22330.63206777  .00004267  00000+0  11976-2 0  9994
2 54354  98.8132 336.0419 0190424 275.3133  82.6352 14.36433312  1540
CZ-6A DEB               
1 54355U 22151DA  22330.56933191  .00149595  00000+0  73530-2 0  9992
2 54355  98.7995 337.1035 0297035 225.0921 132.5839 14.86485913  1584
CZ-6A DEB               
1 54356U 22151DB  22330.76771282  .00002021  00000+0  88832-3 0  9990
2 54356  98.9595 336.6270 0080380 287.7610  71.4808 14.22986488  1547
CZ-6A DEB               
1 54357U 22151DC  22330.84412049  .00224471  00000+0  74119-2 0  9990
2 54357  99.1640 339.5859 0317001 228.6159 128.7407 14.94134905  1631
CZ-6A DEB               
1 54358U 22151DD  22330.63598523  .00003431  00000+0  76538-3 0  9999
2 54358  98.5509 334.9662 0159619 234.1792 124.4482 14.49926489  1568
CZ-6A DEB               
1 54359U 22151DE  22330.73343274  .00006151  00000+0  15026-2 0  9998
2 54359  99.0784 337.6632 0212438 272.8117  84.8775 14.40213493  1543
CZ-6A DEB               
1 54360U 22151DF  22330.56228062  .00000759  00000+0  39407-3 0  9996
2 54360  98.6541 334.6302 0094069 312.0639  47.2560 14.15450101  1531
EOS-6 (OCEANSAT-3)      
1 54361U 22158A   22331.00118076 -.00000043  00000+0  00000+0 0  9997
2 54361  98.3545  65.7854 0010968 228.1930 131.8320 14.45828446   104
2022-158B               
1 54362U 22158B   22331.00336682 -.00000068  00000+0  00000+0 0  9990
2 54362  97.4623  66.3525 0022407 247.2062 297.7207 15.16670437    91
2022-158C               
1 54363U 22158C   22330.99901613 -.00000068  00000+0  00000+0 0  9990
2 54363  97.4515  66.1992 0010621 256.2971 270.4286 15.19054958    94
2022-158D               
1 54364U 22158D   22331.00267755 -.00000068  00000+0  00000+0 0  9996
2 54364  97.4487  66.1957 0010665 267.1032 280.2292 15.19303029    93
2022-158E               
1 54365U 22158E   22331.00149066 -.00000069  00000+0  00000+0 0  9992
2 54365  97.4471  66.1898 0009694 268.4827 272.8900 15.19533185    98
2022-158F               
1 54366U 22158F   22331.00007454 -.00000068  00000+0  00000+0 0  9996
2 54366  97.4465  66.2089 0007159 270.0274 264.6263 15.19978255    96
2022-158G               
1 54367U 22158G   22330.99909307 -.00000069  00000+0  00000+0 0  9993
2 54367  97.4496  66.2069 0007718 278.3378 251.1517 15.20053407    83
2022-158H               
1 54368U 22158H   22330.99805834 -.00000069  00000+0  00000+0 0  9994
2 54368  97.4482  66.2049 0007143 288.1298 235.9906 15.20184065    97
DRAGON CRS-26           
1 54371U 22159A   22330.92675990  .01217159  11776-4  66300-3 0  9996
2 54371  51.6477 250.5178 0023755 238.2413 121.6296 16.18204648    13
NOAA 1 [-]              
1 04793U 70106A   22330.76434563 -.00000026  00000+0  11190-3 0  9998
2 04793 101.5366  30.3575 0031456   6.8986 107.1066 12.54009333377936
NOAA 2 (ITOS-D) [-]     
1 06235U 72082A   22330.70726984 -.00000039  00000+0  45222-4 0  9999
2 06235 101.9728 314.0588 0004115 121.8809  51.5081 12.53154199292299
NOAA 3 [-]              
1 06920U 73086A   22330.77121740 -.00000048  00000+0 -15618-4 0  9998
2 06920 102.2274 312.8958 0006732 352.8870 182.1556 12.40350523220911
NOAA 4 [-]              
1 07529U 74089A   22330.73829862 -.00000033  00000+0  81719-4 0  9992
2 07529 101.9346 310.9656 0008920 152.1846 258.9429 12.53162802196875
NOAA 5 [-]              
1 09057U 76077A   22330.84523576 -.00000034  00000+0  85795-4 0  9993
2 09057 102.1241 297.2318 0009443 199.6194 189.8157 12.37776742 93833
TIROS N [-]             
1 11060U 78096A   22330.73262636  .00000113  00000+0  75305-4 0  9991
2 11060  98.6146  20.0078 0011149  41.2304 318.9712 14.18442235494610
NOAA 6 [-]              
1 11416U 79057A   22330.79192555  .00000182  00000+0  81495-4 0  9995
2 11416  98.6612 341.8918 0011083 135.5460 224.6615 14.33842554264780
NOAA 7 [-]              
1 12553U 81059A   22330.73770150  .00000061  00000+0  52506-4 0  9997
2 12553  98.9783  17.0035 0011738  19.3223 340.8394 14.17357898140782
NOAA 8 [-]              
1 13923U 83022A   22330.74932750  .00000083  00000+0  50479-4 0  9999
2 13923  98.7001 320.7712 0016138  94.4803 265.8222 14.28859076 65585
NOAA 9 [-]              
1 15427U 84123A   22330.86859914  .00000068  00000+0  57721-4 0  9996
2 15427  99.0672 305.9685 0015769  66.4807 323.0968 14.16248619959601
NOAA 10 [-]             
1 16969U 86073A   22330.72621426  .00000076  00000+0  47866-4 0  9992
2 16969  98.5848 314.0263 0011850 192.3110 341.3492 14.28247701883995
NOAA 11 [-]             
1 19531U 88089A   22330.72961092  .00000014  00000+0  28021-4 0  9999
2 19531  98.4419 311.0280 0012262  72.7547 287.4968 14.15336099763771
NOAA 12 [-]             
1 21263U 91032A   22330.78557428  .00000045  00000+0  36824-4 0  9990
2 21263  98.5223 326.1239 0012846 220.9148 139.1069 14.26030821639866
NOAA 13 [-]             
1 22739U 93050A   22330.76178771  .00000046  00000+0  47039-4 0  9990
2 22739  98.5262 302.6282 0008536 235.8640 124.1723 14.12884393509973
NOAA 14 [-]             
1 23455U 94089A   22330.78662123  .00000018  00000+0  30569-4 0  9999
2 23455  98.4370 348.6324 0008852 211.9625 148.1013 14.14221298439650
NOAA 15 [B]             
1 25338U 98030A   22330.83511116  .00000105  00000+0  61941-4 0  9997
2 25338  98.6290 358.1346 0010418 178.5274 181.5939 14.26200444276160
NOAA 16 [-]             
1 26536U 00055A   22330.79858844  .00000055  00000+0  51537-4 0  9999
2 26536  98.6156  23.9323 0011467  65.2498 294.9867 14.13361238440289
NOAA 17 [-]             
1 27453U 02032A   22330.82437678  .00000107  00000+0  64053-4 0  9992
2 27453  98.6913 274.3181 0012169 154.9220 205.2553 14.25169871 61987
